$$SOE
2460721.500000000, A.D. 2025-Feb-15 00:00:00.0000, 2.558239867233907E+08, 1.610683202227996E+08, 6.128601222726777E+06,
2460728.500000000, A.D. 2025-Feb-22 00:00:00.0000, 2.481978500623918E+08, 1.717234217792940E+08, 6.617763511119634E+06,
2460735.500000000, A.D. 2025-Mar-01 00:00:00.0000, 2.401338380850553E+08, 1.820755963468399E+08, 7.095247997577630E+06,
2460742.500000000, A.D. 2025-Mar-08 00:00:00.0000, 2.316442983436910E+08, 1.921051608997934E+08, 7.560156351629093E+06,
2460749.500000000, A.D. 2025-Mar-15 00:00:00.0000, 2.227426083252353E+08, 2.017929668760788E+08, 8.011609889207289E+06,
2460756.500000000, A.D. 2025-Mar-22 00:00:00.0000, 2.134431484529702E+08, 2.111204659632764E+08, 8.448752743480638E+06,
2460763.500000000, A.D. 2025-Mar-29 00:00:00.0000, 2.037612713349695E+08, 2.200697723727073E+08, 8.870754690722525E+06,
2460770.500000000, A.D. 2025-Apr-05 00:00:00.0000, 1.937132676521518E+08, 2.286237242472586E+08, 9.276813834940180E+06,
2460777.500000000, A.D. 2025-Apr-12 00:00:00.0000, 1.833163268729031E+08, 2.367659438219793E+08, 9.666159314545989E+06,
2460784.500000000, A.D. 2025-Apr-19 00:00:00.0000, 1.725884927785666E+08, 2.444808949849831E+08, 1.003805395508657E+07,
2460791.500000000, A.D. 2025-Apr-26 00:00:00.0000, 1.615486142977301E+08, 2.517539375804118E+08, 1.039179680578783E+07,
2460798.500000000, A.D. 2025-May-03 00:00:00.0000, 1.502162920402099E+08, 2.585713780398128E+08, 1.072672553108941E+07,
2460805.500000000, A.D. 2025-May-10 00:00:00.0000, 1.386118208845268E+08, 2.649205159470197E+08, 1.104221863641928E+07,
2460812.500000000, A.D. 2025-May-17 00:00:00.0000, 1.267561290250365E+08, 2.707896861275085E+08, 1.133769750411129E+07,
2460819.500000000, A.D. 2025-May-24 00:00:00.0000, 1.146707140615662E+08, 2.761682958816803E+08, 1.161262820348842E+07,
2460826.500000000, A.D. 2025-May-31 00:00:00.0000, 1.023775769934306E+08, 2.810468573961884E+08, 1.186652304872938E+07,
2460833.500000000, A.D. 2025-Jun-07 00:00:00.0000, 8.989915419496709E+07, 2.854170163127340E+08, 1.209894202781582E+07,
2460840.500000000, A.D. 2025-Jun-14 00:00:00.0000, 7.725824550641835E+07, 2.892715755994222E+08, 1.230949425412765E+07,
2460847.500000000, A.D. 2025-Jun-21 00:00:00.0000, 6.447794015285777E+07, 2.926045113247551E+08, 1.249783905567332E+07,
2460854.500000000, A.D. 2025-Jun-28 00:00:00.0000, 5.158154413758270E+07, 2.954109820543491E+08, 1.266368655608568E+07,
2460861.500000000, A.D. 2025-Jul-05 00:00:00.0000, 3.859250812190206E+07, 2.976873340226532E+08, 1.280679805955745E+07,
2460868.500000000, A.D. 2025-Jul-12 00:00:00.0000, 2.553435511143684E+07, 2.994311013177939E+08, 1.292698628308415E+07,
2460875.500000000, A.D. 2025-Jul-19 00:00:00.0000, 1.243060863505946E+07, 3.006410006084104E+08, 1.302411537462950E+07,
2460882.500000000, A.D. 2025-Jul-26 00:00:00.0000, -6.952778950809541E+05, 3.013169205136115E+08, 1.309810069862279E+07,
2460889.500000000, A.D. 2025-Aug-02 00:00:00.0000, -1.381999012383605E+07, 3.014599058435197E+08, 1.314890839200135E+07,
2460896.500000000, A.D. 2025-Aug-09 00:00:00.0000, -2.692041954819345E+07, 3.010721369453492E+08, 1.317655469697499E+07,
2460903.500000000, A.D. 2025-Aug-16 00:00:00.0000, -3.997372770431614E+07, 3.001569043804356E+08, 1.318110506973702E+07,
2460910.500000000, A.D. 2025-Aug-23 00:00:00.0000, -5.295740710800429E+07, 2.987185792715100E+08, 1.316267305285566E+07,
2460917.500000000, A.D. 2025-Aug-30 00:00:00.0000, -6.584933831743084E+07, 2.967625803879182E+08, 1.312141895428541E+07,
2460924.500000000, A.D. 2025-Sep-06 00:00:00.0000, -7.862784427567013E+07, 2.942953393519304E+08, 1.305754856028485E+07,
2460931.500000000, A.D. 2025-Sep-13 00:00:00.0000, -9.127174337432812E+07, 2.913242618740723E+08, 1.297131184759574E+07,
2460938.500000000, A.D. 2025-Sep-20 00:00:00.0000, -1.037603977837665E+08, 2.878576837488571E+08, 1.286300127633686E+07,
2460945.500000000, A.D. 2025-Sep-27 00:00:00.0000, -1.160737558696191E+08, 2.839048251141295E+08, 1.273294983770876E+07,
2460952.500000000, A.D. 2025-Oct-04 00:00:00.0000, -1.281923906299188E+08, 2.794757439062820E+08, 1.258152910209915E+07,
2460959.500000000, A.D. 2025-Oct-11 00:00:00.0000, -1.400975344963281E+08, 2.745812879498245E+08, 1.240914724302952E+07,
2460966.500000000, A.D. 2025-Oct-18 00:00:00.0000, -1.517711102331343E+08, 2.692330457947408E+08, 1.221624700743890E+07,
2460973.500000000, A.D. 2025-Oct-25 00:00:00.0000, -1.631957578407627E+08, 2.634432966979282E+08, 1.200330363784318E+07,
2460980.500000000, A.D. 2025-Nov-01 00:00:00.0000, -1.743548574943337E+08, 2.572249601279201E+08, 1.177082275936539E+07,
2460987.500000000, A.D. 2025-Nov-08 00:00:00.0000, -1.852325485795902E+08, 2.505915450950443E+08, 1.151933823977669E+07,
2460994.500000000, A.D. 2025-Nov-15 00:00:00.0000, -1.958137448035370E+08, 2.435570995526889E+08, 1.124941001722310E+07,
2461001.500000000, A.D. 2025-Nov-22 00:00:00.0000, -2.060841451280149E+08, 2.361361603670921E+08, 1.096162188902986E+07,
2461008.500000000, A.D. 2025-Nov-29 00:00:00.0000, -2.160302408530600E+08, 2.283437052426305E+08, 1.065657937990822E+07,
2461015.500000000, A.D. 2025-Dec-06 00:00:00.0000, -2.256393213213059E+08, 2.201951066976466E+08, 1.033490789763138E+07,
2461022.500000000, A.D. 2025-Dec-13 00:00:00.0000, -2.348994780091103E+08, 2.117060849294707E+08, 9.997250870009109E+06,
2461029.500000000, A.D. 2025-Dec-20 00:00:00.0000, -2.437996037091988E+08, 2.028926607602648E+08, 9.644267635139123E+06,
2461036.500000000, A.D. 2025-Dec-27 00:00:00.0000, -2.523293880980877E+08, 1.937711113961792E+08, 9.276631402807698E+06,
2461043.500000000, A.D. 2026-Jan-03 00:00:00.0000, -2.604793113738472E+08, 1.843579285161283E+08, 8.895027376312114E+06,
2461050.500000000, A.D. 2026-Jan-10 00:00:00.0000, -2.682406360709242E+08, 1.746697781168631E+08, 8.500150974175505E+06,
2461057.500000000, A.D. 2026-Jan-17 00:00:00.0000, -2.756053970331851E+08, 1.647234621003838E+08, 8.092706127268381E+06,
2461064.500000000, A.D. 2026-Jan-24 00:00:00.0000, -2.825663896790446E+08, 1.545358816828813E+08, 7.673403649422623E+06,
2461071.500000000, A.D. 2026-Jan-31 00:00:00.0000, -2.891171567419592E+08, 1.441240026558991E+08, 7.242959681241855E+06,
2461078.500000000, A.D. 2026-Feb-07 00:00:00.0000, -2.952519736239495E+08, 1.335048224634769E+08, 6.802094198398836E+06,
2461085.500000000, A.D. 2026-Feb-14 00:00:00.0000, -3.009658322984886E+08, 1.226953390854850E+08, 6.351529560771585E+06,
2461092.500000000, A.D. 2026-Feb-21 00:00:00.0000, -3.062544235526779E+08, 1.117125222948778E+08, 5.891989114077985E+06,
2461099.500000000, A.D. 2026-Feb-28 00:00:00.0000, -3.111141188191313E+08, 1.005732884181250E+08, 5.424196037008554E+06,
2461106.500000000, A.D. 2026-Mar-07 00:00:00.0000, -3.155419538139490E+08, 8.929447661196247E+07, 4.948872461634763E+06,
2461113.500000000, A.D. 2026-Mar-14 00:00:00.0000, -3.195356113516517E+08, 7.789282427913150E+07, 4.466738419952810E+06,
2461120.500000000, A.D. 2026-Mar-21 00:00:00.0000, -3.230934016805878E+08, 6.638494446342271E+07, 3.978510688731458E+06,
2461127.500000000, A.D. 2026-Mar-28 00:00:00.0000, -3.262142424706264E+08, 5.478730617946565E+07, 3.484901799559675E+06,
2461134.500000000, A.D. 2026-Apr-04 00:00:00.0000, -3.288976391837756E+08, 4.311621663912293E+07, 2.986619188090779E+06,
2461141.500000000, A.D. 2026-Apr-11 00:00:00.0000, -3.311436656689467E+08, 3.138780494684035E+07, 2.484364425475527E+06,
2461148.500000000, A.D. 2026-Apr-18 00:00:00.0000, -3.329529449194410E+08, 1.961800718730669E+07, 1.978832514368574E+06,
2461155.500000000, A.D. 2026-Apr-25 00:00:00.0000, -3.343266300317271E+08, 7.822552846214302E+06, 1.470711243701942E+06,
2461162.500000000, A.D. 2026-May-02 00:00:00.0000, -3.352663854081969E+08, -3.983047542333330E+06, 9.606805938859575E+05,
2461169.500000000, A.D. 2026-May-09 00:00:00.0000, -3.357743681430906E+08, -1.578351366679617E+07, 4.494121723564724E+05,
2461176.500000000, A.D. 2026-May-16 00:00:00.0000, -3.358532092688795E+08, -2.756380556898680E+07, -6.243134717052430E+04,
2461183.500000000, A.D. 2026-May-23 00:00:00.0000, -3.355059948585437E+08, -3.930913169229781E+07, -5.741967062424012E+05,
2461190.500000000, A.D. 2026-May-30 00:00:00.0000, -3.347362491032400E+08, -5.100495460815928E+07, -1.085240250776481E+06,
2461197.500000000, A.D. 2026-Jun-06 00:00:00.0000, -3.335479197222243E+08, -6.263699777373714E+07, -1.594928070087031E+06,
2461204.500000000, A.D. 2026-Jun-13 00:00:00.0000, -3.319453620750095E+08, -7.419125319451050E+07, -2.102636409496140E+06,
2461211.500000000, A.D. 2026-Jun-20 00:00:00.0000, -3.299333224979259E+08, -8.565398713000801E+07, -2.607752074067764E+06,
2461218.500000000, A.D. 2026-Jun-27 00:00:00.0000, -3.275169225699234E+08, -9.701174424679226E+07, -3.109672697659038E+06,
2461225.500000000, A.D. 2026-Jul-04 00:00:00.0000, -3.247016443096197E+08, -1.082513510618605E+08, -3.607806943153448E+06,
2461232.500000000, A.D. 2026-Jul-11 00:00:00.0000, -3.214933160520202E+08, -1.193599188786492E+08, -4.101574670756437E+06,
2461239.500000000, A.D. 2026-Jul-18 00:00:00.0000, -3.178980989167702E+08, -1.303248462599705E+08, -4.590407083942033E+06,
2461246.500000000, A.D. 2026-Jul-25 00:00:00.0000, -3.139224738511057E+08, -1.411338211011058E+08, -5.073746858694464E+06,
2461253.500000000, A.D. 2026-Aug-01 00:00:00.0000, -3.095732292060089E+08, -1.517748224093142E+08, -5.551048267887957E+06,
2461260.500000000, A.D. 2026-Aug-08 00:00:00.0000, -3.048574486311516E+08, -1.622361218767371E+08, -6.021777326288536E+06,
2461267.500000000, A.D. 2026-Aug-15 00:00:00.0000, -2.997824988666553E+08, -1.725062848434527E+08, -6.485411959622428E+06,
2461274.500000000, A.D. 2026-Aug-22 00:00:00.0000, -2.943560181797664E+08, -1.825741694746216E+08, -6.941442029921643E+06,
2461281.500000000, A.D. 2026-Aug-29 00:00:00.0000, -2.885859077193369E+08, -1.924289255695694E+08, -7.389369121271864E+06,
2461288.500000000, A.D. 2026-Sep-05 00:00:00.0000, -2.824803236399559E+08, -2.020599959169176E+08, -7.828706518221706E+06,
$$EOE